{"type": "FeatureCollection", "features": [ {"type": "Feature", "properties": {"norad_id": 38779, "name": "GSAT-10 (GAGAN/PRN 128)", "group": "gnss", "lat": -0.05052209456190285, "lon": -115.24610280930457, "alt_km": 35791.10996834136, "timestamp": "2025-12-18T04:58:34.819985+00:00", "meta": {"OBJECT_NAME": "GSAT-10 (GAGAN/PRN 128)", "OBJECT_ID": "2012-051B", "EPOCH": "2025-12-17T20:34:38.737056", "MEAN_MOTION": 1.00272622, "ECCENTRICITY": 0.00024814, "INCLINATION": 0.0784, "RA_OF_ASC_NODE": 265.6772, "ARG_OF_PERICENTER": 219.3156, "MEAN_ANOMALY": 353.4188, "EPHEMERIS_TYPE": 0, "CLASSIFICATION_TYPE": "U", "NORAD_CAT_ID": 38779, "ELEMENT_SET_NO": 999, "REV_AT_EPOCH": 4828, "BSTAR": 0, "MEAN_MOTION_DOT": -1.4e-06, "MEAN_MOTION_DDOT": 0}, "tle": {"line1": "1 38779U 12051B   25351.85739279 -.00000140  00000+0  00000+0 0  9993", "line2": "2 38779   0.0784 265.6772 0002481 219.3156 353.4188  1.00272622 48288"}}, "geometry": {"type": "Point", "coordinates": [-115.24610280930457, -0.05052209456190285]}}, {"type": "Feature", "properties": {"norad_id": 38833, "name": "GPS BIIF-3  (PRN 24)", "group": "gnss", "lat": -53.50479957257103, "lon": 58.46273580274942, "alt_km": 20611.93765108879, "timestamp": "2025-12-18T04:58:34.819997+00:00", "meta": {"OBJECT_NAME": "GPS BIIF-3  (PRN 24)", "OBJECT_ID": "2012-053A", "EPOCH": "2025-12-17T20:05:06.382752", "MEAN_MOTION": 2.00565081, "ECCENTRICITY": 0.0176009, "INCLINATION": 53.5589, "RA_OF_ASC_NODE": 151.0299, "ARG_OF_PERICENTER": 64.0689, "MEAN_ANOMALY": 297.7246, "EPHEMERIS_TYPE": 0, "CLASSIFICATION_TYPE": "U", "NORAD_CAT_ID": 38833, "ELEMENT_SET_NO": 999, "REV_AT_EPOCH": 9580, "BSTAR": 0, "MEAN_MOTION_DOT": 6.4e-07, "MEAN_MOTION_DDOT": 0}, "tle": {"line1": "1 38833U 12053A   25351.83687943  .00000064  00000+0  00000+0 0  9998", "line2": "2 38833  53.5589 151.0299 0176009  64.0689 297.7246  2.00565081 95801"}}, "geometry": {"type": "Point", "coordinates": [58.46273580274942, -53.50479957257103]}}, {"type": "Feature", "properties": {"norad_id": 38857, "name": "GSAT0103 (GALILEO-FM3)", "group": "gnss", "lat": -6.546411432335863, "lon": 102.01728737186086, "alt_km": 23222.36523194341, "timestamp": "2025-12-18T04:58:34.820011+00:00", "meta": {"OBJECT_NAME": "GSAT0103 (GALILEO-FM3)", "OBJECT_ID": "2012-055A", "EPOCH": "2025-12-17T15:12:30.323520", "MEAN_MOTION": 1.70473416, "ECCENTRICITY": 0.00028237, "INCLINATION": 55.6952, "RA_OF_ASC_NODE": 106.5322, "ARG_OF_PERICENTER": 269.0015, "MEAN_ANOMALY": 90.9249, "EPHEMERIS_TYPE": 0, "CLASSIFICATION_TYPE": "U", "NORAD_CAT_ID": 38857, "ELEMENT_SET_NO": 999, "REV_AT_EPOCH": 8191, "BSTAR": 0, "MEAN_MOTION_DOT": -8e-08, "MEAN_MOTION_DDOT": 0}, "tle": {"line1": "1 38857U 12055A   25351.63368430 -.00000008  00000+0  00000+0 0  9990", "line2": "2 38857  55.6952 106.5322 0002823 269.0015  90.9249  1.70473416 81917"}}, "geometry": {"type": "Point", "coordinates": [102.01728737186086, -6.546411432335863]}}, {"type": "Feature", "properties": {"norad_id": 38953, "name": "BEIDOU-2 G6 (C02)", "group": "gnss", "lat": 0.6523520338224844, "lon": -114.37501991700036, "alt_km": 35804.75676760762, "timestamp": "2025-12-18T04:58:34.820023+00:00", "meta": {"OBJECT_NAME": "BEIDOU-2 G6 (C02)", "OBJECT_ID": "2012-059A", "EPOCH": "2025-12-17T21:33:21.777408", "MEAN_MOTION": 1.00269429, "ECCENTRICITY": 0.00081829, "INCLINATION": 3.962, "RA_OF_ASC_NODE": 75.4564, "ARG_OF_PERICENTER": 291.7918, "MEAN_ANOMALY": 126.8318, "EPHEMERIS_TYPE": 0, "CLASSIFICATION_TYPE": "U", "NORAD_CAT_ID": 38953, "ELEMENT_SET_NO": 999, "REV_AT_EPOCH": 4809, "BSTAR": 0, "MEAN_MOTION_DOT": -1.53e-06, "MEAN_MOTION_DDOT": 0}, "tle": {"line1": "1 38953U 12059A   25351.89816872 -.00000153  00000+0  00000+0 0  9998", "line2": "2 38953   3.9620  75.4564 0008182 291.7918 126.8318  1.00269429 48090"}}, "geometry": {"type": "Point", "coordinates": [-114.37501991700036, 0.6523520338224844]}}, {"type": "Feature", "properties": {"norad_id": 38977, "name": "LUCH 5B (SDCM/PRN 125)", "group": "gnss", "lat": 10.086606175775115, "lon": 145.3677187425683, "alt_km": 35790.02772630337, "timestamp": "2025-12-18T04:58:34.820040+00:00", "meta": {"OBJECT_NAME": "LUCH 5B (SDCM/PRN 125)", "OBJECT_ID": "2012-061A", "EPOCH": "2025-12-17T09:49:28.621056", "MEAN_MOTION": 1.00272466, "ECCENTRICITY": 0.00067382, "INCLINATION": 10.0912, "RA_OF_ASC_NODE": 51.6616, "ARG_OF_PERICENTER": 194.426, "MEAN_ANOMALY": 331.2355, "EPHEMERIS_TYPE": 0, "CLASSIFICATION_TYPE": "U", "NORAD_CAT_ID": 38977, "ELEMENT_SET_NO": 999, "REV_AT_EPOCH": 4778, "BSTAR": 0, "MEAN_MOTION_DOT": -1.22e-06, "MEAN_MOTION_DDOT": 0}, "tle": {"line1": "1 38977U 12061A   25351.40935904 -.00000122  00000+0  00000+0 0  9998", "line2": "2 38977  10.0912  51.6616 0006738 194.4260 331.2355  1.00272466 47780"}}, "geometry": {"type": "Point", "coordinates": [145.3677187425683, 10.086606175775115]}}, {"type": "Feature", "properties": {"norad_id": 39155, "name": "COSMOS 2485 (747)", "group": "gnss", "lat": -26.22398370085887, "lon": 66.62245072712282, "alt_km": 19145.475684871126, "timestamp": "2025-12-18T04:58:34.820061+00:00", "meta": {"OBJECT_NAME": "COSMOS 2485 (747)", "OBJECT_ID": "2013-019A", "EPOCH": "2025-12-17T07:21:50.321088", "MEAN_MOTION": 2.13103137, "ECCENTRICITY": 0.00247401, "INCLINATION": 65.3162, "RA_OF_ASC_NODE": 79.7134, "ARG_OF_PERICENTER": 229.9478, "MEAN_ANOMALY": 129.8522, "EPHEMERIS_TYPE": 0, "CLASSIFICATION_TYPE": "U", "NORAD_CAT_ID": 39155, "ELEMENT_SET_NO": 999, "REV_AT_EPOCH": 9840, "BSTAR": 0, "MEAN_MOTION_DOT": -4.8e-07, "MEAN_MOTION_DDOT": 0}, "tle": {"line1": "1 39155U 13019A   25351.30683242 -.00000048  00000+0  00000+0 0  9992", "line2": "2 39155  65.3162  79.7134 0024740 229.9478 129.8522  2.13103137 98408"}}, "geometry": {"type": "Point", "coordinates": [66.62245072712282, -26.22398370085887]}}, {"type": "Feature", "properties": {"norad_id": 39166, "name": "GPS BIIF-4  (PRN 27)", "group": "gnss", "lat": 4.710869822069699, "lon": -80.32051765003223, "alt_km": 19910.775447253625, "timestamp": "2025-12-18T04:58:34.820074+00:00", "meta": {"OBJECT_NAME": "GPS BIIF-4  (PRN 27)", "OBJECT_ID": "2013-023A", "EPOCH": "2025-12-15T04:59:33.811872", "MEAN_MOTION": 2.00564736, "ECCENTRICITY": 0.01378529, "INCLINATION": 54.65, "RA_OF_ASC_NODE": 276.4679, "ARG_OF_PERICENTER": 48.4851, "MEAN_ANOMALY": 312.7012, "EPHEMERIS_TYPE": 0, "CLASSIFICATION_TYPE": "U", "NORAD_CAT_ID": 39166, "ELEMENT_SET_NO": 999, "REV_AT_EPOCH": 9219, "BSTAR": 0, "MEAN_MOTION_DOT": -6.8e-07, "MEAN_MOTION_DDOT": 0}, "tle": {"line1": "1 39166U 13023A   25349.20803023 -.00000068  00000+0  00000+0 0  9998", "line2": "2 39166  54.6500 276.4679 0137852  48.4851 312.7012  2.00564736 92194"}}, "geometry": {"type": "Point", "coordinates": [-80.32051765003223, 4.710869822069699]}}, {"type": "Feature", "properties": {"norad_id": 39199, "name": "IRNSS-1A", "group": "gnss", "lat": 16.873625134962143, "lon": -138.83749739959114, "alt_km": 35732.32122661132, "timestamp": "2025-12-18T04:58:34.820085+00:00", "meta": {"OBJECT_NAME": "IRNSS-1A", "OBJECT_ID": "2013-034A", "EPOCH": "2025-12-17T18:43:36.515136", "MEAN_MOTION": 1.00272181, "ECCENTRICITY": 0.00240353, "INCLINATION": 35.3134, "RA_OF_ASC_NODE": 66.4811, "ARG_OF_PERICENTER": 209.5265, "MEAN_ANOMALY": 146.4041, "EPHEMERIS_TYPE": 0, "CLASSIFICATION_TYPE": "U", "NORAD_CAT_ID": 39199, "ELEMENT_SET_NO": 999, "REV_AT_EPOCH": 4554, "BSTAR": 0, "MEAN_MOTION_DOT": 6.4e-07, "MEAN_MOTION_DDOT": 0}, "tle": {"line1": "1 39199U 13034A   25351.78028374  .00000064  00000+0  00000+0 0  9995", "line2": "2 39199  35.3134  66.4811 0024035 209.5265 146.4041  1.00272181 45541"}}, "geometry": {"type": "Point", "coordinates": [-138.83749739959114, 16.873625134962143]}}, {"type": "Feature", "properties": {"norad_id": 39533, "name": "GPS BIIF-5  (PRN 30)", "group": "gnss", "lat": 8.126536215661778, "lon": 162.7344762904781, "alt_km": 20349.135894497373, "timestamp": "2025-12-18T04:58:34.820096+00:00", "meta": {"OBJECT_NAME": "GPS BIIF-5  (PRN 30)", "OBJECT_ID": "2014-008A", "EPOCH": "2025-12-17T04:42:21.782016", "MEAN_MOTION": 2.00574699, "ECCENTRICITY": 0.00793343, "INCLINATION": 53.632, "RA_OF_ASC_NODE": 156.7429, "ARG_OF_PERICENTER": 226.5757, "MEAN_ANOMALY": 132.7662, "EPHEMERIS_TYPE": 0, "CLASSIFICATION_TYPE": "U", "NORAD_CAT_ID": 39533, "ELEMENT_SET_NO": 999, "REV_AT_EPOCH": 8603, "BSTAR": 0, "MEAN_MOTION_DOT": 7.8e-07, "MEAN_MOTION_DDOT": 0}, "tle": {"line1": "1 39533U 14008A   25351.19608544  .00000078  00000+0  00000+0 0  9992", "line2": "2 39533  53.6320 156.7429 0079334 226.5757 132.7662  2.00574699 86034"}}, "geometry": {"type": "Point", "coordinates": [162.7344762904781, 8.126536215661778]}}, {"type": "Feature", "properties": {"norad_id": 39617, "name": "ASTRA 5B (EGNOS/PRN 123)", "group": "gnss", "lat": -0.018547064542262143, "lon": -174.82531152708285, "alt_km": 35781.94625491931, "timestamp": "2025-12-18T04:58:34.820111+00:00", "meta": {"OBJECT_NAME": "ASTRA 5B (EGNOS/PRN 123)", "OBJECT_ID": "2014-011B", "EPOCH": "2025-12-17T18:34:29.888256", "MEAN_MOTION": 1.00269776, "ECCENTRICITY": 0.00038829, "INCLINATION": 0.0434, "RA_OF_ASC_NODE": 351.7344, "ARG_OF_PERICENTER": 266.9992, "MEAN_ANOMALY": 130.0512, "EPHEMERIS_TYPE": 0, "CLASSIFICATION_TYPE": "U", "NORAD_CAT_ID": 39617, "ELEMENT_SET_NO": 999, "REV_AT_EPOCH": 4284, "BSTAR": 0, "MEAN_MOTION_DOT": 1.62e-06, "MEAN_MOTION_DDOT": 0}, "tle": {"line1": "1 39617U 14011B   25351.77395704  .00000162  00000+0  00000+0 0  9998", "line2": "2 39617   0.0434 351.7344 0003882 266.9992 130.0512  1.00269776 42848"}}, "geometry": {"type": "Point", "coordinates": [-174.82531152708285, -0.018547064542262143]}}]}